[{"OBJECT_NAME":"NPSAT1","OBJECT_ID":"2019-036B","EPOCH":"2026-03-09T08:03:28.323072","MEAN_MOTION":14.73510979,"ECCENTRICITY":0.00080689,"INCLINATION":23.9975,"RA_OF_ASC_NODE":147.5764,"ARG_OF_PERICENTER":159.0133,"MEAN_ANOMALY":201.0695,"EPHEMERIS_TYPE":0,"CLASSIFICATION_TYPE":"U","NORAD_CAT_ID":44340,"ELEMENT_SET_NO":999,"REV_AT_EPOCH":35774,"BSTAR":0.0011274615,"MEAN_MOTION_DOT":7.738e-5,"MEAN_MOTION_DDOT":0},{"OBJECT_NAME":"FENGYUN 1C DEB","OBJECT_ID":"1999-025HZ","EPOCH":"2026-03-09T16:41:13.331616","MEAN_MOTION":14.78396279,"ECCENTRICITY":0.00151144,"INCLINATION":99.0743,"RA_OF_ASC_NODE":108.3738,"ARG_OF_PERICENTER":297.9411,"MEAN_ANOMALY":189.0746,"EPHEMERIS_TYPE":0,"CLASSIFICATION_TYPE":"U","NORAD_CAT_ID":29927,"ELEMENT_SET_NO":999,"REV_AT_EPOCH":99930,"BSTAR":0.002279364,"MEAN_MOTION_DOT":0.00016605,"MEAN_MOTION_DDOT":0}]
